OBJECT_NAME,OBJECT_ID,EPOCH,MEAN_MOTION,ECCENTRICITY,INCLINATION,RA_OF_ASC_NODE,ARG_OF_PERICENTER,MEAN_ANOMALY,EPHEMERIS_TYPE,CLASSIFICATION_TYPE,NORAD_CAT_ID,ELEMENT_SET_NO,REV_AT_EPOCH,BSTAR,MEAN_MOTION_DOT,MEAN_MOTION_DDOT
STARLINK-33780,2025-069AC,2026-06-19T20:00:01.999008,15.34339035,.000077,53.1597,23.0732,90.9095,239.1281,0,U,63459,999,578,.33879E-3,.11065E-3,0
STARLINK-33679,2025-070A,2026-06-19T08:50:43.801728,15.27599423,.00016228,43.0029,45.8880,273.4453,86.6213,0,U,63460,999,6852,.40347717E-3,.10864E-3,0
STARLINK-33706,2025-070B,2026-06-19T08:56:16.626624,15.27570986,.0001308,43.0016,45.8880,272.9440,87.1262,0,U,63461,999,6852,.75740156E-3,.20633E-3,0
STARLINK-33691,2025-070C,2026-06-18T23:51:28.947456,15.27573850,.0001317,43.0021,47.3442,264.2931,95.7770,0,U,63462,999,6842,.47199045E-3,.12746E-3,0
STARLINK-33696,2025-070D,2026-06-19T08:19:16.242528,15.27588054,.0001206,43.0007,45.6946,276.1117,83.9597,0,U,63463,999,6852,.91849546E-3,.25105E-3,0
STARLINK-33701,2025-070E,2026-06-19T09:01:49.940544,15.27588378,.00014551,43.0035,45.9146,280.2224,79.8464,0,U,63464,999,6852,.55182432E-3,.14958E-3,0
STARLINK-33685,2025-070F,2026-06-19T00:45:08.352288,15.27585890,.00013036,43.0019,47.6259,276.2848,83.7856,0,U,63465,999,6847,.44966164E-3,.12134E-3,0
STARLINK-33654,2025-070G,2026-06-19T08:21:07.537824,15.27604925,.00008655,42.9997,45.7019,305.1186,54.9584,0,U,63466,999,6852,.14917284E-2,.41047E-3,0
STARLINK-33697,2025-070H,2026-06-19T08:24:49.514976,15.27591788,.00017626,43.0009,45.7351,253.4007,106.6651,0,U,63467,999,6852,.78980395E-3,.21543E-3,0
STARLINK-33720,2025-070J,2026-06-19T08:26:40.541568,15.27578794,.00012278,43.0000,45.7303,257.4265,102.6450,0,U,63468,999,6852,.56160412E-3,.15223E-3,0
STARLINK-33587,2025-070K,2026-06-19T01:47:50.381952,15.27607696,.00010711,42.9988,47.0838,251.6215,108.4521,0,U,63469,999,6848,.10337307E-2,.28317E-3,0
STARLINK-33637,2025-070L,2026-06-19T09:07:22.594368,15.27595949,.00012181,43.0036,45.9390,279.5042,80.5672,0,U,63470,999,6852,.56351427E-3,.15284E-3,0
STARLINK-33744,2025-070M,2026-06-19T08:45:10.554336,15.27587077,.00015257,43.0005,45.8232,267.3152,92.7525,0,U,63471,999,6852,.65038502E-3,.17682E-3,0
STARLINK-33766,2025-070N,2026-06-19T08:58:08.145696,15.27587025,.0000745,43.0036,45.8930,293.8524,66.2250,0,U,63472,999,6852,.82971115E-3,.22645E-3,0
STARLINK-33765,2025-070P,2026-06-19T08:32:13.170336,15.27578683,.00014192,43.0004,45.7566,271.0798,88.9891,0,U,63473,999,6852,.74377367E-3,.2026E-3,0
STARLINK-33735,2025-070Q,2026-06-19T08:06:18.761760,15.27580685,.00011999,42.9988,45.6124,270.3168,89.7546,0,U,63474,999,6852,.24850341E-3,.6583E-4,0
STARLINK-33731,2025-070R,2026-06-19T09:03:39.729888,15.27634771,.0001173,43.0078,45.9180,275.9285,84.1434,0,U,63475,999,6852,.12428869E-2,.34155E-3,0
STARLINK-33718,2025-070S,2026-06-19T01:31:10.369344,15.27600230,.00020818,43.0014,46.9965,265.9672,94.0942,0,U,63476,999,6848,.50838854E-3,.13763E-3,0
STARLINK-33630,2025-070T,2026-06-19T08:08:51.637056,15.27585210,.00012117,43.0001,42.1538,269.9572,90.1141,0,U,63477,999,6856,.93871113E-3,.25663E-3,0
STARLINK-33695,2025-070U,2026-06-18T22:25:24.959424,15.27589011,.000138,42.9989,44.2673,273.6247,86.4447,0,U,63478,999,6850,.3885E-3,.10447E-3,0
STARLINK-33713,2025-070V,2026-06-19T07:55:54.329952,15.27584597,.00014552,42.9994,42.0781,269.2915,90.7770,0,U,63479,999,6856,.49213435E-3,.13307E-3,0
STARLINK-33721,2025-070W,2026-06-19T07:59:36.225888,15.27590845,.00012776,42.9993,42.1003,272.0850,87.9855,0,U,63480,999,6856,.66880624E-3,.18194E-3,0
STARLINK-33639,2025-070X,2026-06-19T08:27:21.902112,15.27584125,.00013354,43.0024,42.2419,268.6831,91.3867,0,U,63481,999,6856,.53434139E-3,.14472E-3,0
STARLINK-33688,2025-070Z,2026-06-19T00:46:59.365056,15.27578916,.00010215,43.0022,47.6133,281.5244,78.5493,0,U,63483,999,6847,.38718691E-3,.10407E-3,0
STARLINK-33700,2025-070AA,2026-06-19T08:10:00.774336,15.27584166,.00013424,42.9990,45.6170,271.2204,88.8494,0,U,63484,999,6852,.41801519E-3,.1126E-3,0
STARLINK-33687,2025-070AB,2026-06-19T01:36:43.397280,15.27590482,.00016379,43.0004,46.9649,271.2857,88.7807,0,U,63485,999,6848,.61142827E-3,.16606E-3,0
STARLINK-33716,2025-070AC,2026-06-19T01:44:08.077344,15.27602356,.00016202,42.9983,47.0569,262.2371,97.8296,0,U,63486,999,6848,.51394657E-3,.13917E-3,0
STARLINK-33754,2025-070AD,2026-06-19T08:30:21.799008,15.27588468,.00015484,43.0020,45.7285,261.0637,99.0040,0,U,63487,999,6852,.52785885E-3,.14295E-3,0
STARLINK-33828,2025-071A,2026-06-18T21:35:18.671424,15.35416662,.00025384,53.1592,27.8340,100.1356,259.9933,0,U,63493,999,6827,.7194378E-3,.24811E-3,0
STARLINK-33819,2025-071B,2026-06-19T07:59:50.036928,15.35424321,.00014018,53.1593,25.5517,94.7976,265.3187,0,U,63494,999,6834,.6633865E-3,.22848E-3,0
