STARLINK-33780          
1 63459U 25069AC  26170.83335647  .00011065  00000+0  33879-3 0  9999
2 63459  53.1597  23.0732 0000770  90.9095 239.1281 15.34339035  5784
STARLINK-33679          
1 63460U 25070A   26170.36856252  .00010864  00000+0  40348-3 0  9996
2 63460  43.0029  45.8880 0001622 273.4453  86.6213 15.27599423 68525
STARLINK-33706          
1 63461U 25070B   26170.37241466  .00020633  00000+0  75740-3 0  9992
2 63461  43.0016  45.8880 0001308 272.9440  87.1262 15.27570986 68526
STARLINK-33691          
1 63462U 25070C   26169.99408504  .00012746  00000+0  47199-3 0  9990
2 63462  43.0021  47.3442 0001317 264.2931  95.7770 15.27573850 68424
STARLINK-33696          
1 63463U 25070D   26170.34671577  .00025105  00000+0  91850-3 0  9990
2 63463  43.0007  45.6946 0001206 276.1117  83.9597 15.27588054 68523
STARLINK-33701          
1 63464U 25070E   26170.37627246  .00014958  00000+0  55182-3 0  9990
2 63464  43.0035  45.9146 0001455 280.2224  79.8464 15.27588378 68527
STARLINK-33685          
1 63465U 25070F   26170.03134667  .00012134  00000+0  44966-3 0  9996
2 63465  43.0019  47.6259 0001303 276.2848  83.7856 15.27585890 68472
STARLINK-33654          
1 63466U 25070G   26170.34800391  .00041047  00000+0  14917-2 0  9992
2 63466  42.9997  45.7019 0000865 305.1186  54.9584 15.27604925 68523
STARLINK-33697          
1 63467U 25070H   26170.35057309  .00021543  00000+0  78980-3 0  9997
2 63467  43.0009  45.7351 0001762 253.4007 106.6651 15.27591788 68525
STARLINK-33720          
1 63468U 25070J   26170.35185812  .00015223  00000+0  56160-3 0  9993
2 63468  43.0000  45.7303 0001227 257.4265 102.6450 15.27578794 68525
STARLINK-33587          
1 63469U 25070K   26170.07488868  .00028317  00000+0  10337-2 0  9993
2 63469  42.9988  47.0838 0001071 251.6215 108.4521 15.27607696 68487
STARLINK-33637          
1 63470U 25070L   26170.38012262  .00015284  00000+0  56351-3 0  9996
2 63470  43.0036  45.9390 0001218 279.5042  80.5672 15.27595949 68524
STARLINK-33744          
1 63471U 25070M   26170.36470549  .00017682  00000+0  65039-3 0  9998
2 63471  43.0005  45.8232 0001525 267.3152  92.7525 15.27587077 68528
STARLINK-33766          
1 63472U 25070N   26170.37370539  .00022645  00000+0  82971-3 0  9997
2 63472  43.0036  45.8930 0000745 293.8524  66.2250 15.27587025 68522
STARLINK-33765          
1 63473U 25070P   26170.35570799  .00020260  00000+0  74377-3 0  9998
2 63473  43.0004  45.7566 0001419 271.0798  88.9891 15.27578683 68524
STARLINK-33735          
1 63474U 25070Q   26170.33771715  .00006583  00000+0  24850-3 0  9991
2 63474  42.9988  45.6124 0001199 270.3168  89.7546 15.27580685 68522
STARLINK-33731          
1 63475U 25070R   26170.37754317  .00034155  00000+0  12429-2 0  9999
2 63475  43.0078  45.9180 0001173 275.9285  84.1434 15.27634771 68524
STARLINK-33718          
1 63476U 25070S   26170.06331446  .00013763  00000+0  50839-3 0  9990
2 63476  43.0014  46.9965 0002081 265.9672  94.0942 15.27600230 68487
STARLINK-33630          
1 63477U 25070T   26170.33948654  .00025663  00000+0  93871-3 0  9991
2 63477  43.0001  42.1538 0001211 269.9572  90.1141 15.27585210 68562
STARLINK-33695          
1 63478U 25070U   26169.93431666  .00010447  00000+0  38850-3 0  9996
2 63478  42.9989  44.2673 0001380 273.6247  86.4447 15.27589011 68501
STARLINK-33713          
1 63479U 25070V   26170.33048993  .00013307  00000+0  49213-3 0  9993
2 63479  42.9994  42.0781 0001455 269.2915  90.7770 15.27584597 68567
STARLINK-33721          
1 63480U 25070W   26170.33305817  .00018194  00000+0  66881-3 0  9995
2 63480  42.9993  42.1003 0001277 272.0850  87.9855 15.27590845 68563
STARLINK-33639          
1 63481U 25070X   26170.35233683  .00014472  00000+0  53434-3 0  9994
2 63481  43.0024  42.2419 0001335 268.6831  91.3867 15.27584125 68564
STARLINK-33688          
1 63483U 25070Z   26170.03263154  .00010407  00000+0  38719-3 0  9990
2 63483  43.0022  47.6133 0001021 281.5244  78.5493 15.27578916 68473
STARLINK-33700          
1 63484U 25070AA  26170.34028674  .00011260  00000+0  41802-3 0  9996
2 63484  42.9990  45.6170 0001342 271.2204  88.8494 15.27584166 68528
STARLINK-33687          
1 63485U 25070AB  26170.06716895  .00016606  00000+0  61143-3 0  9994
2 63485  43.0004  46.9649 0001637 271.2857  88.7807 15.27590482 68483
STARLINK-33716          
1 63486U 25070AC  26170.07231571  .00013917  00000+0  51395-3 0  9999
2 63486  42.9983  47.0569 0001620 262.2371  97.8296 15.27602356 68481
STARLINK-33754          
1 63487U 25070AD  26170.35441897  .00014295  00000+0  52786-3 0  9990
2 63487  43.0020  45.7285 0001548 261.0637  99.0040 15.27588468 68520
STARLINK-33828          
1 63493U 25071A   26169.89952166  .00024811  00000+0  71944-3 0  9993
2 63493  53.1592  27.8340 0002538 100.1356 259.9933 15.35416662 68272
STARLINK-33819          
1 63494U 25071B   26170.33321802  .00022848  00000+0  66339-3 0  9992
2 63494  53.1593  25.5517 0001401  94.7976 265.3187 15.35424321 68340
